KUIPER-00165            
1 65778U 25217S   25323.97905330  .00032665  00000+0  87141-3 0  9996
2 65778  51.8656 174.4420 0002671 239.8208 120.2515 15.37837676  8542
KUIPER-00166            
1 65779U 25217T   25323.97087291  .00050613  00000+0  13402-2 0  9995
2 65779  51.8688 174.3939 0003455 222.7645 137.3073 15.37861846  8543
KUIPER-00167            
1 65780U 25217U   25324.33335648 -.00294369  00000+0 -14230-1 0  9999
2 65780  51.8733 174.1194 0009592 262.6871 266.8972 15.19436947  2707
KUIPER-00168            
1 65781U 25217V   25323.88076254  .00042768  00000+0  11093-2 0  9991
2 65781  51.8695 174.5509 0003189 174.4794 185.6229 15.38574663  8538
KUIPER-00169            
1 65782U 25217W   25323.97186428  .00051681  00000+0  13619-2 0  9997
2 65782  51.8712 174.4014 0003491 240.9296 119.1341 15.38001703  8549
KUIPER-00170            
1 65783U 25217X   25323.61801372  .00027597  00000+0  76836-3 0  9991
2 65783  51.8658 176.5029 0005722 275.3108  84.7225 15.36589079  8487
KUIPER-00171            
1 65784U 25217Y   25324.33335648 -.00082838  00000+0 -80779-3 0  9992
2 65784  51.8583 169.6002 0008297 279.1273 320.6370 15.65618376  5399
KUIPER-00172            
1 65785U 25217Z   25323.89212496  .00047133  00000+0  12297-2 0  9994
2 65785  51.8705 174.6214 0002874 234.6416 125.4302 15.38351847  8539
KUIPER-00173            
1 65786U 25217AA  25323.96561610  .00031641  00000+0  83892-3 0  9995
2 65786  51.8665 174.3595 0002897 220.6598 139.4172 15.38043204  8541
KUIPER-00174            
1 65787U 25217AB  25323.30135557  .00057962  00000+0  15072-2 0  9999
2 65787  51.8705 177.4130 0003606 186.8134 173.2805 15.38360125  8446
KUIPER-00176            
1 65788U 25217AC  25324.33335648 -.01096268  00000+0 -47711-1 0  9996
2 65788  51.8760 173.1372 0002950 239.2884  62.6669 15.24784052  5210
KUIPER-00101            
1 65947U 25228A   25324.33335648 -.00799919  00000+0 -37839-1 0  9997
2 65947  51.8872 129.3056 0004988 275.9490 127.9870 15.21540051  4478
KUIPER-00113            
1 65948U 25228B   25324.33335648  .00079314  00000+0  25192-2 0  9996
2 65948  51.8801 128.4852 0005760 266.4687 154.3010 15.31929551  5532
KUIPER-00117            
1 65949U 25228C   25324.33335648 -.00784427  00000+0 -32320-1 0  9997
2 65949  51.8798 128.7767 0008382 275.2376 352.2269 15.26059522  5915
KUIPER-00121            
1 65950U 25228D   25323.87628914  .00041185  00000+0  11949-2 0  9998
2 65950  51.8786 130.8167 0005724 284.3499  75.6851 15.35100516  6909
KUIPER-00122            
1 65951U 25228E   25324.33335648  .00070104  00000+0  36974-2 0  9998
2 65951  51.8832 130.1022 0005837 305.7553  76.6242 15.14898179  5594
KUIPER-00123            
1 65952U 25228F   25324.33335648 -.00671082  00000+0 -38287-1 0  9991
2 65952  51.8894 130.1171 0006058 290.2930  19.0788 15.14623554  3891
KUIPER-00124            
1 65953U 25228G   25323.88170448  .00041162  00000+0  12136-2 0  9990
2 65953  51.8790 130.8490 0004290 303.8611  56.1966 15.34600426  6901
KUIPER-00125            
1 65954U 25228H   25324.19542768  .00036583  00000+0  10530-2 0  9991
2 65954  51.8755 129.1966 0005322 278.8495  81.1888 15.35405678  6959
KUIPER-00126            
1 65955U 25228J   25324.33335648 -.00782364  00000+0 -37296-1 0  9999
2 65955  51.8874 129.3704 0005827 295.6067  32.3206 15.21211469  4707
KUIPER-00127            
1 65956U 25228K   25324.33335648 -.00767583  00000+0 -30380-1 0  9993
2 65956  51.8804 128.7554 0004585 285.6052  21.5469 15.27365562  5836
KUIPER-00128            
1 65957U 25228L   25324.19523382  .00036865  00000+0  10721-2 0  9990
2 65957  51.8767 129.2039 0005803 278.6707  81.3621 15.35077907  6952
KUIPER-00129            
1 65958U 25228M   25323.73698203  .00034937  00000+0  10048-2 0  9995
2 65958  51.8788 131.3833 0004399 258.9333 101.1159 15.35460687  6887
KUIPER-00130            
1 65959U 25228N   25323.87361293  .00034855  00000+0  10204-2 0  9990
2 65959  51.8778 130.7897 0005490 284.8037  75.2340 15.34896877  6901
KUIPER-00134            
1 65960U 25228P   25323.87559833  .00056846  00000+0  16461-2 0  9996
2 65960  51.8773 130.8021 0006397 283.0258  77.0013 15.35012757  6906
KUIPER-00135            
1 65961U 25228Q   25323.74506193  .00032152  00000+0  94452-3 0  9995
2 65961  51.8784 131.4374 0003374 276.1567  83.9034 15.34836496  6884
KUIPER-00136            
1 65962U 25228R   25324.19110029  .00078806  00000+0  22326-2 0  9991
2 65962  51.8753 129.1762 0004136 285.7088  74.3441 15.35560461  6958
KUIPER-00137            
1 65963U 25228S   25323.87494060  .00039954  00000+0  11705-2 0  9996
2 65963  51.8776 130.8071 0005714 287.7777  72.2585 15.34810307  6903
KUIPER-00138            
1 65964U 25228T   25323.87900799  .00057332  00000+0  16676-2 0  9990
2 65964  51.8835 130.8199 0007980 278.9704  81.0379 15.34858377  6908
KUIPER-00140            
1 65965U 25228U   25323.88092823  .00030505  00000+0  90115-3 0  9996
2 65965  51.8780 130.8435 0005321 292.5874  67.4549 15.34680319  6904
KUIPER-00141            
1 65966U 25228V   25324.19440297  .00035572  00000+0  10250-2 0  9994
2 65966  51.8760 129.1905 0005223 276.8405  83.1987 15.35387103  6954
KUIPER-00146            
1 65967U 25228W   25323.87223433  .00037272  00000+0  10904-2 0  9995
2 65967  51.8800 130.7905 0006689 276.8547  83.1678 15.34881573  6903
KUIPER-00149            
1 65968U 25228X   25323.73549646  .00034091  00000+0  98009-3 0  9997
2 65968  51.8754 131.3682 0004401 267.2398  92.8085 15.35482631  6888
KUIPER-00154            
1 65969U 25228Y   25324.19138124  .00042453  00000+0  12271-2 0  9991
2 65969  51.8792 129.1739 0006180 271.6047  88.4231 15.35203015  6954
KUIPER-00157            
1 65970U 25228Z   25323.87601299  .00033944  00000+0  99375-3 0  9991
2 65970  51.8784 130.8143 0006081 290.5995  69.4338 15.34907108  6902
